{
  "type": "FeatureCollection",
  "features": [
    {
      "type": "Feature",
      "properties": {
        "norad_id": 67152,
        "name": "KUIPER-00247",
        "group": "last-30-days",
        "lat": -45.02590356088365,
        "lon": -63.58250576265477,
        "alt_km": 468.8825597295927,
        "timestamp": "2025-12-25T07:41:08.453352+00:00",
        "meta_object_name": "KUIPER-00247",
        "meta_object_id": "2025-301V",
        "meta_epoch": "2025-12-24T22:00:03.000096",
        "meta_mean_motion": 15.33926121,
        "meta_eccentricity": 0.00112278,
        "meta_inclination": 51.8623,
        "meta_ra_of_asc_node": 66.5069,
        "meta_arg_of_pericenter": 150.1751,
        "meta_mean_anomaly": 23.9665,
        "meta_ephemeris_type": 0,
        "meta_classification_type": "U",
        "meta_norad_cat_id": 67152,
        "meta_element_set_no": 999,
        "meta_rev_at_epoch": 215,
        "meta_bstar": -4.1117e-05,
        "meta_mean_motion_dot": -1.755e-05,
        "meta_mean_motion_ddot": 0,
        "tle_line1": "1 67152U 25301V   25358.91670139 -.00001755  00000+0 -41117-4 0  9998",
        "tle_line2": "2 67152  51.8623  66.5069 0011227 150.1751  23.9665 15.33926121  2155"
      },
      "geometry": {
        "type": "Point",
        "coordinates": [
          -63.58250576265477,
          -45.02590356088365
        ]
      }
    },
    {
      "type": "Feature",
      "properties": {
        "norad_id": 67153,
        "name": "KUIPER-00248",
        "group": "last-30-days",
        "lat": -51.64572251506898,
        "lon": -32.366829497247856,
        "alt_km": 470.2370967887182,
        "timestamp": "2025-12-25T07:41:08.453362+00:00",
        "meta_object_name": "KUIPER-00248",
        "meta_object_id": "2025-301W",
        "meta_epoch": "2025-12-24T22:00:03.000096",
        "meta_mean_motion": 15.34604863,
        "meta_eccentricity": 0.00087271,
        "meta_inclination": 51.8671,
        "meta_ra_of_asc_node": 66.4644,
        "meta_arg_of_pericenter": 138.5022,
        "meta_mean_anomaly": 56.3562,
        "meta_ephemeris_type": 0,
        "meta_classification_type": "U",
        "meta_norad_cat_id": 67153,
        "meta_element_set_no": 999,
        "meta_rev_at_epoch": 240,
        "meta_bstar": -3.7416494e-05,
        "meta_mean_motion_dot": -1.659e-05,
        "meta_mean_motion_ddot": 0,
        "tle_line1": "1 67153U 25301W   25358.91670139 -.00001659  00000+0 -37416-4 0  9999",
        "tle_line2": "2 67153  51.8671  66.4644 0008727 138.5022  56.3562 15.34604863  2400"
      },
      "geometry": {
        "type": "Point",
        "coordinates": [
          -32.366829497247856,
          -51.64572251506898
        ]
      }
    },
    {
      "type": "Feature",
      "properties": {
        "norad_id": 67154,
        "name": "KUIPER-00249",
        "group": "last-30-days",
        "lat": -51.76225404574561,
        "lon": -21.07720606860371,
        "alt_km": 470.024277616767,
        "timestamp": "2025-12-25T07:41:08.453372+00:00",
        "meta_object_name": "KUIPER-00249",
        "meta_object_id": "2025-301X",
        "meta_epoch": "2025-12-24T22:00:03.000096",
        "meta_mean_motion": 15.34799009,
        "meta_eccentricity": 0.00078398,
        "meta_inclination": 51.8647,
        "meta_ra_of_asc_node": 66.4512,
        "meta_arg_of_pericenter": 135.4035,
        "meta_mean_anomaly": 66.203,
        "meta_ephemeris_type": 0,
        "meta_classification_type": "U",
        "meta_norad_cat_id": 67154,
        "meta_element_set_no": 999,
        "meta_rev_at_epoch": 208,
        "meta_bstar": -4.7388481e-05,
        "meta_mean_motion_dot": -2.009e-05,
        "meta_mean_motion_ddot": 0,
        "tle_line1": "1 67154U 25301X   25358.91670139 -.00002009  00000+0 -47388-4 0  9999",
        "tle_line2": "2 67154  51.8647  66.4512 0007839 135.4035  66.2030 15.34799009  2082"
      },
      "geometry": {
        "type": "Point",
        "coordinates": [
          -21.07720606860371,
          -51.76225404574561
        ]
      }
    },
    {
      "type": "Feature",
      "properties": {
        "norad_id": 67155,
        "name": "KUIPER-00250",
        "group": "last-30-days",
        "lat": -48.349888773930594,
        "lon": 2.4480193420077185,
        "alt_km": 468.5960019477816,
        "timestamp": "2025-12-25T07:41:08.453384+00:00",
        "meta_object_name": "KUIPER-00250",
        "meta_object_id": "2025-301Y",
        "meta_epoch": "2025-12-24T22:00:03.000096",
        "meta_mean_motion": 15.35280296,
        "meta_eccentricity": 0.00061366,
        "meta_inclination": 51.8709,
        "meta_ra_of_asc_node": 66.4181,
        "meta_arg_of_pericenter": 126.5285,
        "meta_mean_anomaly": 89.8784,
        "meta_ephemeris_type": 0,
        "meta_classification_type": "U",
        "meta_norad_cat_id": 67155,
        "meta_element_set_no": 999,
        "meta_rev_at_epoch": 226,
        "meta_bstar": -3.112677e-05,
        "meta_mean_motion_dot": -1.468e-05,
        "meta_mean_motion_ddot": 0,
        "tle_line1": "1 67155U 25301Y   25358.91670139 -.00001468  00000+0 -31127-4 0  9992",
        "tle_line2": "2 67155  51.8709  66.4181 0006136 126.5285  89.8784 15.35280296  2262"
      },
      "geometry": {
        "type": "Point",
        "coordinates": [
          2.4480193420077185,
          -48.349888773930594
        ]
      }
    },
    {
      "type": "Feature",
      "properties": {
        "norad_id": 67156,
        "name": "KUIPER-00251",
        "group": "last-30-days",
        "lat": -51.82549448265611,
        "lon": -27.692706557640363,
        "alt_km": 470.57943192332186,
        "timestamp": "2025-12-25T07:41:08.453396+00:00",
        "meta_object_name": "KUIPER-00251",
        "meta_object_id": "2025-301Z",
        "meta_epoch": "2025-12-24T22:00:03.000096",
        "meta_mean_motion": 15.3469808,
        "meta_eccentricity": 0.00087439,
        "meta_inclination": 51.8658,
        "meta_ra_of_asc_node": 66.459,
        "meta_arg_of_pericenter": 133.852,
        "meta_mean_anomaly": 63.7876,
        "meta_ephemeris_type": 0,
        "meta_classification_type": "U",
        "meta_norad_cat_id": 67156,
        "meta_element_set_no": 999,
        "meta_rev_at_epoch": 242,
        "meta_bstar": -4.040701e-05,
        "meta_mean_motion_dot": -1.765e-05,
        "meta_mean_motion_ddot": 0,
        "tle_line1": "1 67156U 25301Z   25358.91670139 -.00001765  00000+0 -40407-4 0  9994",
        "tle_line2": "2 67156  51.8658  66.4590 0008743 133.8520  63.7876 15.34698080  2423"
      },
      "geometry": {
        "type": "Point",
        "coordinates": [
          -27.692706557640363,
          -51.82549448265611
        ]
      }
    },
    {
      "type": "Feature",
      "properties": {
        "norad_id": 67157,
        "name": "KUIPER-00252",
        "group": "last-30-days",
        "lat": -49.390356618118105,
        "lon": -49.06417828273679,
        "alt_km": 469.8857103733053,
        "timestamp": "2025-12-25T07:41:08.453406+00:00",
        "meta_object_name": "KUIPER-00252",
        "meta_object_id": "2025-301AA",
        "meta_epoch": "2025-12-24T22:00:03.000096",
        "meta_mean_motion": 15.34274825,
        "meta_eccentricity": 0.00100861,
        "meta_inclination": 51.8649,
        "meta_ra_of_asc_node": 66.486,
        "meta_arg_of_pericenter": 144.6059,
        "meta_mean_anomaly": 39.8418,
        "meta_ephemeris_type": 0,
        "meta_classification_type": "U",
        "meta_norad_cat_id": 67157,
        "meta_element_set_no": 999,
        "meta_rev_at_epoch": 211,
        "meta_bstar": -1.3342643e-05,
        "meta_mean_motion_dot": -8.34e-06,
        "meta_mean_motion_ddot": 0,
        "tle_line1": "1 67157U 25301AA  25358.91670139 -.00000834  00000+0 -13343-4 0  9990",
        "tle_line2": "2 67157  51.8649  66.4860 0010086 144.6059  39.8418 15.34274825  2113"
      },
      "geometry": {
        "type": "Point",
        "coordinates": [
          -49.06417828273679,
          -49.390356618118105
        ]
      }
    },
    {
      "type": "Feature",
      "properties": {
        "norad_id": 67158,
        "name": "KUIPER-00261",
        "group": "last-30-days",
        "lat": -46.07807872729836,
        "lon": 9.809933004890741,
        "alt_km": 468.115164728104,
        "timestamp": "2025-12-25T07:41:08.453416+00:00",
        "meta_object_name": "KUIPER-00261",
        "meta_object_id": "2025-301AB",
        "meta_epoch": "2025-12-24T22:00:03.000096",
        "meta_mean_motion": 15.35346095,
        "meta_eccentricity": 0.00055832,
        "meta_inclination": 51.869,
        "meta_ra_of_asc_node": 66.4089,
        "meta_arg_of_pericenter": 124.1132,
        "meta_mean_anomaly": 97.7135,
        "meta_ephemeris_type": 0,
        "meta_classification_type": "U",
        "meta_norad_cat_id": 67158,
        "meta_element_set_no": 999,
        "meta_rev_at_epoch": 170,
        "meta_bstar": -4.8902387e-05,
        "meta_mean_motion_dot": -2.09e-05,
        "meta_mean_motion_ddot": 0,
        "tle_line1": "1 67158U 25301AB  25358.91670139 -.00002090  00000+0 -48902-4 0  9996",
        "tle_line2": "2 67158  51.8690  66.4089 0005583 124.1132  97.7135 15.35346095  1707"
      },
      "geometry": {
        "type": "Point",
        "coordinates": [
          9.809933004890741,
          -46.07807872729836
        ]
      }
    }
  ]
}